LEO 1 (LEO VANTAGE 1)   
1 43113U 18004C   26068.70632107  .00005709  00000+0  39603-3 0  9997
2 43113  99.2469 334.0284 0352942  24.8540 336.9207 14.67184901422891
STARLINK-5539           
1 55747U 23028G   26068.85733490  .00000320  00000+0  34605-4 0  9990
2 55747  69.9992 244.0974 0002582 271.1358  88.9505 14.98332394166068
